NORAD_CAT_ID,OBJECT_NAME,OBJECT_TYPE,EPOCH,MEAN_MOTION,ECCENTRICITY,INCLINATION,RA_OF_ASC_NODE,ARG_OF_PERICENTER,MEAN_ANOMALY,BSTAR,MEAN_MOTION_DOT,MEAN_MOTION_DDOT,TLE_LINE0,TLE_LINE1,TLE_LINE2,SEMIMAJOR_AXIS,PERIOD,APOGEE,PERIGEE,DECAYED
53165.0,STARLINK-4090,PAYLOAD,2024-07-25 23:08:16,15.08833981,0.0001141,53.2162,300.4808,75.5062,284.6056,0.00055397,8.538e-05,0.0,0 STARLINK-4090,1 53165U 22083AK  24207.96407786  .00008538  00000-0  55397-3 0  9993,2 53165  53.2162 300.4808 0001141  75.5062 284.6056 15.08833981112669,6917.899,95.438,540.553,538.974,0.0
53165.0,STARLINK-4090,PAYLOAD,2024-07-26 10:15:57,15.0883975,0.000168,53.2164,298.3992,88.4236,271.6948,7.2031e-05,8.58e-06,0.0,0 STARLINK-4090,1 53165U 22083AK  24208.42775447  .00000858  00000-0  72031-4 0  9999,2 53165  53.2164 298.3992 0001680  88.4236 271.6948 15.08839750112109,6917.881,95.438,540.908,538.584,0.0
53165.0,STARLINK-4090,PAYLOAD,2024-07-26 15:02:07,15.08844649,0.0001715,53.2161,297.5073,78.2336,281.8848,2.547e-05,1.17e-06,0.0,0 STARLINK-4090,1 53165U 22083AK  24208.62647146  .00000117  00000-0  25470-4 0  9998,2 53165  53.2161 297.5073 0001715  78.2336 281.8848 15.08844649112132,6917.866,95.437,540.918,538.545,0.0
53165.0,STARLINK-4090,PAYLOAD,2024-07-27 10:06:45,15.08835835,0.0001507,53.2187,293.9438,85.9509,274.1655,7.1985e-05,8.58e-06,0.0,0 STARLINK-4090,1 53165U 22083AK  24209.42135757  .00000858  00000-0  71985-4 0  9991,2 53165  53.2187 293.9438 0001507  85.9509 274.1655 15.08835835112881,6917.893,95.438,540.801,538.716,0.0
53165.0,STARLINK-4090,PAYLOAD,2024-07-27 14:52:54,15.0883074,0.0001358,53.2154,293.0463,96.5974,263.5173,-0.0001109,-2.052e-05,0.0,0 STARLINK-4090,1 53165U 22083AK  24209.62007922 -.00002052  00000-0 -11090-3 0  9995,2 53165  53.2154 293.0463 0001358  96.5974 263.5173 15.08830740112283,6917.909,95.438,540.713,538.834,0.0
53165.0,STARLINK-4090,PAYLOAD,2024-07-28 13:08:19,15.08823043,0.0001632,53.2159,288.8877,90.0538,270.0642,0.00094778,0.00014821,0.0,0 STARLINK-4090,1 53165U 22083AK  24210.54744750  .00014821  00000-0  94778-3 0  9994,2 53165  53.2159 288.8877 0001632  90.0538 270.0642 15.08823043113057,6917.932,95.439,540.926,538.668,0.0
53165.0,STARLINK-4090,PAYLOAD,2024-07-28 22:40:36,15.08853835,0.0001459,53.2161,287.1031,80.075,280.0407,0.00033227,5.006e-05,0.0,0 STARLINK-4090,1 53165U 22083AK  24210.94487036  .00005006  00000-0  33227-3 0  9996,2 53165  53.2161 287.1031 0001459  80.0750 280.0407 15.08853835113115,6917.838,95.437,540.712,538.694,0.0
53165.0,STARLINK-4090,PAYLOAD,2024-07-29 11:23:42,15.08840499,0.0001596,53.2162,284.7213,96.557,263.5604,0.00022233,3.252e-05,0.0,0 STARLINK-4090,1 53165U 22083AK  24211.47479834  .00003252  00000-0  22233-3 0  9998,2 53165  53.2162 284.7213 0001596  96.5570 263.5604 15.08840499113190,6917.879,95.438,540.848,538.64,0.0
53165.0,STARLINK-4090,PAYLOAD,2024-07-29 22:31:24,15.08848115,0.0001794,53.2158,282.6382,100.401,259.7184,0.00021322,3.108e-05,0.0,0 STARLINK-4090,1 53165U 22083AK  24211.93847348  .00003108  00000-0  21322-3 0  9996,2 53165  53.2158 282.6382 0001794 100.4010 259.7184 15.08848115112634,6917.856,95.437,540.962,538.48,0.0
53165.0,STARLINK-4090,PAYLOAD,2024-07-30 11:14:28,15.08869596,0.0001428,53.2156,280.2608,88.0997,272.0159,0.00076543,0.00011925,0.0,0 STARLINK-4090,1 53165U 22083AK  24212.46838309  .00011925  00000-0  76543-3 0  9993,2 53165  53.2156 280.2608 0001428  88.0997 272.0159 15.08869596113341,6917.79,95.436,540.643,538.667,0.0
53165.0,STARLINK-4090,PAYLOAD,2024-07-30 14:25:14,15.08878967,0.0001458,53.2155,279.6656,88.648,271.4679,0.0010672,0.00016755,0.0,0 STARLINK-4090,1 53165U 22083AK  24212.60086029  .00016755  00000-0  10672-2 0  9999,2 53165  53.2155 279.6656 0001458  88.6480 271.4679 15.08878967112735,6917.761,95.435,540.635,538.618,0.0
53165.0,STARLINK-4090,PAYLOAD,2024-07-31 11:05:15,15.08817034,0.0001424,53.2157,275.7999,100.6672,259.4481,-0.00066021,-0.00010773,0.0,0 STARLINK-4090,1 53165U 22083AK  24213.46198918 -.00010773  00000-0 -66021-3 0  9991,2 53165  53.2157 275.7999 0001424 100.6672 259.4481 15.08817034113494,6917.951,95.439,540.801,538.83,0.0
53165.0,STARLINK-4090,PAYLOAD,2024-07-31 20:37:35,15.08815921,0.0001461,53.2156,274.0157,102.6567,257.4589,0.00052271,8.035e-05,0.0,0 STARLINK-4090,1 53165U 22083AK  24213.85944027  .00008035  00000-0  52271-3 0  9992,2 53165  53.2156 274.0157 0001461 102.6567 257.4589 15.08815921112924,6917.954,95.439,540.83,538.808,0.0
53165.0,STARLINK-4090,PAYLOAD,2024-08-01 10:56:04,15.08844247,0.0001471,53.2162,271.3416,103.7461,256.3695,0.0021884,0.00034716,0.0,0 STARLINK-4090,1 53165U 22083AK  24214.45560945  .00034716  00000-0  21884-2 0  9992,2 53165  53.2162 271.3416 0001471 103.7461 256.3695 15.08844247113644,6917.867,95.437,540.75,538.715,0.0
53165.0,STARLINK-4090,PAYLOAD,2024-08-02 10:46:51,15.08854529,0.0001417,53.2155,266.8812,106.4188,253.696,0.00071119,0.00011053,0.0,0 STARLINK-4090,1 53165U 22083AK  24215.44920571  .00011053  00000-0  71119-3 0  9993,2 53165  53.2155 266.8812 0001417 106.4188 253.6960 15.08854529113796,6917.836,95.437,540.681,538.721,0.0
53165.0,STARLINK-4090,PAYLOAD,2024-08-02 13:57:37,15.08857205,0.0001407,53.2153,266.2866,106.5916,253.5231,0.00070848,0.00011011,0.0,0 STARLINK-4090,1 53165U 22083AK  24215.58168437  .00011011  00000-0  70848-3 0  9995,2 53165  53.2153 266.2866 0001407 106.5916 253.5231 15.08857205113183,6917.828,95.436,540.666,538.719,0.0
53165.0,STARLINK-4090,PAYLOAD,2024-08-02 20:19:09,15.08863538,0.0001408,53.216,265.0972,97.7103,262.4049,0.00074573,0.00011608,0.0,0 STARLINK-4090,1 53165U 22083AK  24215.84664095  .00011608  00000-0  74573-3 0  9996,2 53165  53.2160 265.0972 0001408  97.7103 262.4049 15.08863538113223,6917.808,95.436,540.647,538.699,0.0
53165.0,STARLINK-4090,PAYLOAD,2024-08-03 12:13:00,15.08853171,0.0001432,53.2146,262.1227,89.0164,271.0992,0.00025459,3.768e-05,0.0,0 STARLINK-4090,1 53165U 22083AK  24216.50903898  .00003768  00000-0  25459-3 0  9994,2 53165  53.2146 262.1227 0001432  89.0164 271.0992 15.08853171113951,6917.84,95.437,540.696,538.714,0.0
53165.0,STARLINK-4090,PAYLOAD,2024-08-04 10:28:24,15.08845139,0.0001466,53.2148,257.9591,84.2688,275.8471,4.3717e-05,4.08e-06,0.0,0 STARLINK-4090,1 53165U 22083AK  24217.43639927  .00000408  00000-0  43717-4 0  9992,2 53165  53.2148 257.9591 0001466  84.2688 275.8471 15.08845139114099,6917.865,95.437,540.744,538.716,0.0
53165.0,STARLINK-4090,PAYLOAD,2024-08-04 20:00:43,15.08860361,0.0001412,53.2148,256.1752,87.3304,272.785,0.00037043,5.616e-05,0.0,0 STARLINK-4090,1 53165U 22083AK  24217.83383227  .00005616  00000-0  37043-3 0  9995,2 53165  53.2148 256.1752 0001412  87.3304 272.7850 15.08860361114157,6917.818,95.436,540.66,538.706,0.0
53165.0,STARLINK-4090,PAYLOAD,2024-08-05 02:22:15,15.08855069,0.0002025,53.2138,254.9918,80.2718,279.8503,0.00028752,4.293e-05,0.0,0 STARLINK-4090,1 53165U 22083AK  24218.09879505  .00004293  00000-0  28752-3 0  9990,2 53165  53.2138 254.9918 0002025  80.2718 279.8503 15.08855069114194,6917.834,95.437,541.1,538.298,0.0
53165.0,STARLINK-4090,PAYLOAD,2024-08-05 19:51:29,15.08866631,0.0001154,53.2135,251.7117,87.9364,272.176,0.00041557,6.337e-05,0.0,0 STARLINK-4090,1 53165U 22083AK  24218.82742053  .00006337  00000-0  41557-3 0  9997,2 53165  53.2135 251.7117 0001154  87.9364 272.1760 15.08866631113670,6917.799,95.436,540.462,538.866,0.0
53165.0,STARLINK-4090,PAYLOAD,2024-08-06 05:23:49,15.08828122,0.0001436,53.215,249.9267,93.8668,266.2488,-0.00033535,-5.619e-05,0.0,0 STARLINK-4090,1 53165U 22083AK  24219.22487393 -.00005619  00000-0 -33535-3 0  9996,2 53165  53.2150 249.9267 0001436  93.8668 266.2488 15.08828122114369,6917.917,95.438,540.775,538.788,0.0
53165.0,STARLINK-4090,PAYLOAD,2024-08-06 11:45:21,15.08825243,0.0001385,53.2152,248.7383,85.188,274.927,-0.0003161,-5.313e-05,0.0,0 STARLINK-4090,1 53165U 22083AK  24219.48983758 -.00005313  00000-0 -31610-3 0  9993,2 53165  53.2152 248.7383 0001385  85.1880 274.9270 15.08825243113770,6917.925,95.438,540.749,538.832,0.0
53165.0,STARLINK-4090,PAYLOAD,2024-08-07 11:36:09,15.08838813,0.0001402,53.215,244.2794,75.7333,284.3815,0.0004018,6.112e-05,0.0,0 STARLINK-4090,1 53165U 22083AK  24220.48344244  .00006112  00000-0  40180-3 0  9994,2 53165  53.2150 244.2794 0001402  75.7333 284.3815 15.08838813114557,6917.884,95.438,540.719,538.779,0.0
53165.0,STARLINK-4090,PAYLOAD,2024-08-08 11:26:56,15.08852167,0.0001448,53.2149,239.8188,72.042,288.073,0.00059039,9.124e-05,0.0,0 STARLINK-4090,1 53165U 22083AK  24221.47704313  .00009124  00000-0  59039-3 0  9990,2 53165  53.2149 239.8188 0001448  72.0420 288.0730 15.08852167114071,6917.843,95.437,540.71,538.706,0.0
53165.0,STARLINK-4090,PAYLOAD,2024-08-09 04:56:10,15.08841335,0.0001399,53.2151,236.5469,85.0496,275.0656,7.0945e-05,8.41e-06,0.0,0 STARLINK-4090,1 53165U 22083AK  24222.20568286  .00000841  00000-0  70945-4 0  9996,2 53165  53.2151 236.5469 0001399  85.0496 275.0656 15.08841335114812,6917.876,95.437,540.709,538.773,0.0
53165.0,STARLINK-4090,PAYLOAD,2024-08-09 06:31:34,15.08840412,0.0001391,53.2151,236.2496,85.346,274.7691,7.202e-05,8.58e-06,0.0,0 STARLINK-4090,1 53165U 22083AK  24222.27192349  .00000858  00000-0  72020-4 0  9990,2 53165  53.2151 236.2496 0001391  85.3460 274.7691 15.08840412114196,6917.879,95.438,540.706,538.782,0.0
53165.0,STARLINK-4090,PAYLOAD,2024-08-09 17:39:15,15.08847227,0.0001367,53.2151,234.1686,80.9441,279.1706,0.00016333,2.313e-05,0.0,0 STARLINK-4090,1 53165U 22083AK  24222.73560030  .00002313  00000-0  16333-3 0  9999,2 53165  53.2151 234.1686 0001367  80.9441 279.1706 15.08847227114262,6917.858,95.437,540.669,538.778,0.0
53165.0,STARLINK-4090,PAYLOAD,2024-08-10 01:36:12,15.08840287,0.0001749,53.2169,232.6888,106.9212,253.1972,8.7292e-05,1.101e-05,0.0,0 STARLINK-4090,1 53165U 22083AK  24223.06680615  .00001101  00000-0  87292-4 0  9995,2 53165  53.2169 232.6888 0001749 106.9212 253.1972 15.08840287114319,6917.88,95.438,540.954,538.535,0.0
